[{"OBJECT_NAME":"SL-8 R/B","OBJECT_ID":"1979-089B","EPOCH":"2026-03-03T12:04:32.395008","MEAN_MOTION":14.42345805,"ECCENTRICITY":0.001713,"INCLINATION":74.0674,"RA_OF_ASC_NODE":102.497,"ARG_OF_PERICENTER":275.8018,"MEAN_ANOMALY":84.1185,"EPHEMERIS_TYPE":0,"CLASSIFICATION_TYPE":"U","NORAD_CAT_ID":11574,"ELEMENT_SET_NO":999,"REV_AT_EPOCH":43521,"BSTAR":0.00010315,"MEAN_MOTION_DOT":3.15e-6,"MEAN_MOTION_DDOT":0},{"OBJECT_NAME":"SL-14 R/B","OBJECT_ID":"1980-005B","EPOCH":"2026-03-03T05:13:19.231680","MEAN_MOTION":14.90921266,"ECCENTRICITY":0.0015605,"INCLINATION":82.5156,"RA_OF_ASC_NODE":313.3749,"ARG_OF_PERICENTER":179.4244,"MEAN_ANOMALY":180.6996,"EPHEMERIS_TYPE":0,"CLASSIFICATION_TYPE":"U","NORAD_CAT_ID":11672,"ELEMENT_SET_NO":999,"REV_AT_EPOCH":47552,"BSTAR":7.1597e-5,"MEAN_MOTION_DOT":7.33e-6,"MEAN_MOTION_DDOT":0},{"OBJECT_NAME":"SL-8 R/B","OBJECT_ID":"1981-003B","EPOCH":"2026-03-03T02:41:57.655104","MEAN_MOTION":15.10673845,"ECCENTRICITY":0.0262721,"INCLINATION":82.9392,"RA_OF_ASC_NODE":296.1055,"ARG_OF_PERICENTER":201.4811,"MEAN_ANOMALY":157.5238,"EPHEMERIS_TYPE":0,"CLASSIFICATION_TYPE":"U","NORAD_CAT_ID":12139,"ELEMENT_SET_NO":999,"REV_AT_EPOCH":31368,"BSTAR":0.00053549,"MEAN_MOTION_DOT":0.00020716,"MEAN_MOTION_DDOT":0},{"OBJECT_NAME":"SL-3 R/B","OBJECT_ID":"1981-046B","EPOCH":"2026-03-03T10:11:33.099360","MEAN_MOTION":15.41797273,"ECCENTRICITY":0.0020087,"INCLINATION":81.2311,"RA_OF_ASC_NODE":297.2671,"ARG_OF_PERICENTER":43.4451,"MEAN_ANOMALY":316.837,"EPHEMERIS_TYPE":0,"CLASSIFICATION_TYPE":"U","NORAD_CAT_ID":12465,"ELEMENT_SET_NO":999,"REV_AT_EPOCH":43746,"BSTAR":0.00032342,"MEAN_MOTION_DOT":0.00013827,"MEAN_MOTION_DDOT":0},{"OBJECT_NAME":"SL-3 R/B","OBJECT_ID":"1981-103B","EPOCH":"2026-03-03T10:59:44.345760","MEAN_MOTION":15.21280948,"ECCENTRICITY":0.001254,"INCLINATION":81.157,"RA_OF_ASC_NODE":220.7417,"ARG_OF_PERICENTER":309.3797,"MEAN_ANOMALY":50.6323,"EPHEMERIS_TYPE":0,"CLASSIFICATION_TYPE":"U","NORAD_CAT_ID":12904,"ELEMENT_SET_NO":999,"REV_AT_EPOCH":97228,"BSTAR":0.00032346,"MEAN_MOTION_DOT":7.27e-5,"MEAN_MOTION_DDOT":0},{"OBJECT_NAME":"SL-3 R/B","OBJECT_ID":"1982-013B","EPOCH":"2026-03-03T11:15:08.438688","MEAN_MOTION":15.21937775,"ECCENTRICITY":0.0022314,"INCLINATION":81.177,"RA_OF_ASC_NODE":168.0597,"ARG_OF_PERICENTER":198.6138,"MEAN_ANOMALY":161.4281,"EPHEMERIS_TYPE":0,"CLASSIFICATION_TYPE":"U","NORAD_CAT_ID":13068,"ELEMENT_SET_NO":999,"REV_AT_EPOCH":40340,"BSTAR":0.00025635,"MEAN_MOTION_DOT":5.906e-5,"MEAN_MOTION_DDOT":0},{"OBJECT_NAME":"SL-3 R/B","OBJECT_ID":"1982-039B","EPOCH":"2026-03-03T11:51:54.432864","MEAN_MOTION":15.10035811,"ECCENTRICITY":0.0029887,"INCLINATION":81.1579,"RA_OF_ASC_NODE":223.1043,"ARG_OF_PERICENTER":344.6304,"MEAN_ANOMALY":15.401,"EPHEMERIS_TYPE":0,"CLASSIFICATION_TYPE":"U","NORAD_CAT_ID":13154,"ELEMENT_SET_NO":999,"REV_AT_EPOCH":38070,"BSTAR":0.00020174,"MEAN_MOTION_DOT":3.337e-5,"MEAN_MOTION_DDOT":0},{"OBJECT_NAME":"SL-3 R/B","OBJECT_ID":"1982-079B","EPOCH":"2026-03-03T10:22:44.543136","MEAN_MOTION":15.24683913,"ECCENTRICITY":0.0024831,"INCLINATION":81.1473,"RA_OF_ASC_NODE":200.4637,"ARG_OF_PERICENTER":185.9195,"MEAN_ANOMALY":174.1749,"EPHEMERIS_TYPE":0,"CLASSIFICATION_TYPE":"U","NORAD_CAT_ID":13403,"ELEMENT_SET_NO":999,"REV_AT_EPOCH":37674,"BSTAR":0.00033151,"MEAN_MOTION_DOT":8.292e-5,"MEAN_MOTION_DDOT":0},{"OBJECT_NAME":"SL-14 R/B","OBJECT_ID":"1982-092B","EPOCH":"2026-03-03T07:36:45.578016","MEAN_MOTION":14.86658717,"ECCENTRICITY":0.0019429,"INCLINATION":82.5703,"RA_OF_ASC_NODE":147.359,"ARG_OF_PERICENTER":325.9165,"MEAN_ANOMALY":97.7173,"EPHEMERIS_TYPE":0,"CLASSIFICATION_TYPE":"U","NORAD_CAT_ID":13553,"ELEMENT_SET_NO":999,"REV_AT_EPOCH":32798,"BSTAR":6.7463e-5,"MEAN_MOTION_DOT":6.25e-6,"MEAN_MOTION_DDOT":0},{"OBJECT_NAME":"SL-3 R/B","OBJECT_ID":"1983-010B","EPOCH":"2026-03-03T06:56:56.263776","MEAN_MOTION":15.46076306,"ECCENTRICITY":0.0018467,"INCLINATION":81.1059,"RA_OF_ASC_NODE":10.0905,"ARG_OF_PERICENTER":71.291,"MEAN_ANOMALY":289.0337,"EPHEMERIS_TYPE":0,"CLASSIFICATION_TYPE":"U","NORAD_CAT_ID":13819,"ELEMENT_SET_NO":999,"REV_AT_EPOCH":35695,"BSTAR":0.00039033,"MEAN_MOTION_DOT":0.00019262,"MEAN_MOTION_DDOT":0},{"OBJECT_NAME":"SL-3 R/B","OBJECT_ID":"1983-075B","EPOCH":"2026-03-03T12:10:53.628096","MEAN_MOTION":15.38234128,"ECCENTRICITY":0.0019721,"INCLINATION":97.6131,"RA_OF_ASC_NODE":66.8512,"ARG_OF_PERICENTER":250.0981,"MEAN_ANOMALY":109.8138,"EPHEMERIS_TYPE":0,"CLASSIFICATION_TYPE":"U","NORAD_CAT_ID":14208,"ELEMENT_SET_NO":999,"REV_AT_EPOCH":32920,"BSTAR":0.00035545,"MEAN_MOTION_DOT":0.00013395,"MEAN_MOTION_DDOT":0},{"OBJECT_NAME":"COSMOS 1536","OBJECT_ID":"1984-013A","EPOCH":"2026-03-03T09:58:41.022048","MEAN_MOTION":15.23725902,"ECCENTRICITY":0.0012831,"INCLINATION":82.5438,"RA_OF_ASC_NODE":114.0872,"ARG_OF_PERICENTER":308.1308,"MEAN_ANOMALY":51.8771,"EPHEMERIS_TYPE":0,"CLASSIFICATION_TYPE":"U","NORAD_CAT_ID":14699,"ELEMENT_SET_NO":999,"REV_AT_EPOCH":27166,"BSTAR":0.00032172,"MEAN_MOTION_DOT":7.777e-5,"MEAN_MOTION_DDOT":0},{"OBJECT_NAME":"SL-14 R/B","OBJECT_ID":"1984-027B","EPOCH":"2026-03-03T11:57:15.195456","MEAN_MOTION":14.85968731,"ECCENTRICITY":0.0017899,"INCLINATION":82.5381,"RA_OF_ASC_NODE":250.8214,"ARG_OF_PERICENTER":358.9546,"MEAN_ANOMALY":1.1629,"EPHEMERIS_TYPE":0,"CLASSIFICATION_TYPE":"U","NORAD_CAT_ID":14820,"ELEMENT_SET_NO":999,"REV_AT_EPOCH":24671,"BSTAR":6.7775e-5,"MEAN_MOTION_DOT":6.17e-6,"MEAN_MOTION_DDOT":0},{"OBJECT_NAME":"SL-8 R/B","OBJECT_ID":"1985-006B","EPOCH":"2026-03-03T01:35:42.351360","MEAN_MOTION":14.37777951,"ECCENTRICITY":0.0018721,"INCLINATION":74.0434,"RA_OF_ASC_NODE":273.3369,"ARG_OF_PERICENTER":192.6546,"MEAN_ANOMALY":324.5251,"EPHEMERIS_TYPE":0,"CLASSIFICATION_TYPE":"U","NORAD_CAT_ID":15483,"ELEMENT_SET_NO":999,"REV_AT_EPOCH":15307,"BSTAR":7.206e-5,"MEAN_MOTION_DOT":1.91e-6,"MEAN_MOTION_DDOT":0},{"OBJECT_NAME":"SL-12 R/B(2)","OBJECT_ID":"1985-042D","EPOCH":"2026-03-03T12:18:53.169696","MEAN_MOTION":14.21980466,"ECCENTRICITY":0.0033511,"INCLINATION":71.1065,"RA_OF_ASC_NODE":100.7793,"ARG_OF_PERICENTER":138.2593,"MEAN_ANOMALY":330.7992,"EPHEMERIS_TYPE":0,"CLASSIFICATION_TYPE":"U","NORAD_CAT_ID":15772,"ELEMENT_SET_NO":999,"REV_AT_EPOCH":11351,"BSTAR":9.9652e-5,"MEAN_MOTION_DOT":1.74e-6,"MEAN_MOTION_DDOT":0},{"OBJECT_NAME":"SL-14 R/B","OBJECT_ID":"1985-069B","EPOCH":"2026-03-03T10:01:06.152448","MEAN_MOTION":14.86424279,"ECCENTRICITY":0.0017926,"INCLINATION":82.5272,"RA_OF_ASC_NODE":30.8304,"ARG_OF_PERICENTER":209.0624,"MEAN_ANOMALY":150.9597,"EPHEMERIS_TYPE":0,"CLASSIFICATION_TYPE":"U","NORAD_CAT_ID":15945,"ELEMENT_SET_NO":999,"REV_AT_EPOCH":17190,"BSTAR":7.6429e-5,"MEAN_MOTION_DOT":7.01e-6,"MEAN_MOTION_DDOT":0},{"OBJECT_NAME":"SL-16 R/B","OBJECT_ID":"1985-097B","EPOCH":"2026-03-03T11:51:24.444288","MEAN_MOTION":14.16599655,"ECCENTRICITY":0.0009957,"INCLINATION":71.0037,"RA_OF_ASC_NODE":153.597,"ARG_OF_PERICENTER":267.0668,"MEAN_ANOMALY":173.3862,"EPHEMERIS_TYPE":0,"CLASSIFICATION_TYPE":"U","NORAD_CAT_ID":16182,"ELEMENT_SET_NO":999,"REV_AT_EPOCH":8635,"BSTAR":2.2121e-5,"MEAN_MOTION_DOT":-4.0e-8,"MEAN_MOTION_DDOT":0}]
